{"fetched_at":"2026-03-30T13:17:50Z","count":15418,"tles":[{"name":"STARLINK-11738 [DTC]","line1":"1 64375U 25127F   26087.67648911  .00284690  00000+0  21296-2 0  9997","line2":"2 64375  42.9989 330.5252 0003573 282.6745  77.3723 15.71032052 46487","category":"Starlink"}]}